{
  "type": "FeatureCollection",
  "features": [
    {
      "type": "Feature",
      "properties": {
        "norad_id": 30208,
        "name": "FENGYUN 1C DEB",
        "group": "fengyun-1c-debris",
        "lat": -48.76587441493376,
        "lon": 159.8817712435747,
        "alt_km": 800.7244571831034,
        "timestamp": "2025-12-14T20:40:32.046326+00:00",
        "meta_object_name": "FENGYUN 1C DEB",
        "meta_object_id": "1999-025VR",
        "meta_epoch": "2025-12-13T23:36:45.613728",
        "meta_mean_motion": 14.23529644,
        "meta_eccentricity": 0.00329467,
        "meta_inclination": 98.5619,
        "meta_ra_of_asc_node": 348.925,
        "meta_arg_of_pericenter": 266.5827,
        "meta_mean_anomaly": 148.0583,
        "meta_ephemeris_type": 0,
        "meta_classification_type": "U",
        "meta_norad_cat_id": 30208,
        "meta_element_set_no": 999,
        "meta_rev_at_epoch": 97855,
        "meta_bstar": 0.00064853031,
        "meta_mean_motion_dot": 1.441e-05,
        "meta_mean_motion_ddot": 0,
        "tle_line1": "1 30208U 99025VR  25347.98386127  .00001441  00000+0  64853-3 0  9991",
        "tle_line2": "2 30208  98.5619 348.9250 0032946 266.5827 148.0583 14.23529644978557"
      },
      "geometry": {
        "type": "Point",
        "coordinates": [
          159.8817712435747,
          -48.76587441493376
        ]
      }
    },
    {
      "type": "Feature",
      "properties": {
        "norad_id": 30209,
        "name": "FENGYUN 1C DEB",
        "group": "fengyun-1c-debris",
        "lat": 48.39311292476949,
        "lon": 175.5791039603825,
        "alt_km": 850.7712013715773,
        "timestamp": "2025-12-14T20:40:32.046336+00:00",
        "meta_object_name": "FENGYUN 1C DEB",
        "meta_object_id": "1999-025VS",
        "meta_epoch": "2025-12-14T06:30:40.408128",
        "meta_mean_motion": 14.12905581,
        "meta_eccentricity": 0.0038634,
        "meta_inclination": 98.7143,
        "meta_ra_of_asc_node": 345.0595,
        "meta_arg_of_pericenter": 234.4878,
        "meta_mean_anomaly": 136.4681,
        "meta_ephemeris_type": 0,
        "meta_classification_type": "U",
        "meta_norad_cat_id": 30209,
        "meta_element_set_no": 999,
        "meta_rev_at_epoch": 97228,
        "meta_bstar": 0.00053505252,
        "meta_mean_motion_dot": 9.6e-06,
        "meta_mean_motion_ddot": 0,
        "tle_line1": "1 30209U 99025VS  25348.27130102  .00000960  00000+0  53505-3 0  9992",
        "tle_line2": "2 30209  98.7143 345.0595 0038634 234.4878 136.4681 14.12905581972282"
      },
      "geometry": {
        "type": "Point",
        "coordinates": [
          175.5791039603825,
          48.39311292476949
        ]
      }
    },
    {
      "type": "Feature",
      "properties": {
        "norad_id": 30210,
        "name": "FENGYUN 1C DEB",
        "group": "fengyun-1c-debris",
        "lat": 74.4886070842481,
        "lon": -105.66714460590416,
        "alt_km": 821.6878728255879,
        "timestamp": "2025-12-14T20:40:32.046346+00:00",
        "meta_object_name": "FENGYUN 1C DEB",
        "meta_object_id": "1999-025VT",
        "meta_epoch": "2025-12-14T03:25:42.308256",
        "meta_mean_motion": 14.08271236,
        "meta_eccentricity": 0.00569219,
        "meta_inclination": 99.1906,
        "meta_ra_of_asc_node": 37.9157,
        "meta_arg_of_pericenter": 132.5456,
        "meta_mean_anomaly": 288.9809,
        "meta_ephemeris_type": 0,
        "meta_classification_type": "U",
        "meta_norad_cat_id": 30210,
        "meta_element_set_no": 999,
        "meta_rev_at_epoch": 96777,
        "meta_bstar": 0.0008052722,
        "meta_mean_motion_dot": 1.351e-05,
        "meta_mean_motion_ddot": 0,
        "tle_line1": "1 30210U 99025VT  25348.14285079  .00001351  00000+0  80527-3 0  9993",
        "tle_line2": "2 30210  99.1906  37.9157 0056921 132.5456 288.9809 14.08271236967777"
      },
      "geometry": {
        "type": "Point",
        "coordinates": [
          -105.66714460590416,
          74.4886070842481
        ]
      }
    },
    {
      "type": "Feature",
      "properties": {
        "norad_id": 30212,
        "name": "FENGYUN 1C DEB",
        "group": "fengyun-1c-debris",
        "lat": -80.20507291726643,
        "lon": -40.59739967385308,
        "alt_km": 853.8704425464293,
        "timestamp": "2025-12-14T20:40:32.046357+00:00",
        "meta_object_name": "FENGYUN 1C DEB",
        "meta_object_id": "1999-025VV",
        "meta_epoch": "2025-12-14T03:55:42.877344",
        "meta_mean_motion": 13.97057287,
        "meta_eccentricity": 0.00969664,
        "meta_inclination": 99.4572,
        "meta_ra_of_asc_node": 213.5859,
        "meta_arg_of_pericenter": 233.4307,
        "meta_mean_anomaly": 125.7901,
        "meta_ephemeris_type": 0,
        "meta_classification_type": "U",
        "meta_norad_cat_id": 30212,
        "meta_element_set_no": 999,
        "meta_rev_at_epoch": 96245,
        "meta_bstar": 0.00026577186,
        "meta_mean_motion_dot": 3.38e-06,
        "meta_mean_motion_ddot": 0,
        "tle_line1": "1 30212U 99025VV  25348.16369071  .00000338  00000+0  26577-3 0  9991",
        "tle_line2": "2 30212  99.4572 213.5859 0096966 233.4307 125.7901 13.97057287962457"
      },
      "geometry": {
        "type": "Point",
        "coordinates": [
          -40.59739967385308,
          -80.20507291726643
        ]
      }
    },
    {
      "type": "Feature",
      "properties": {
        "norad_id": 30213,
        "name": "FENGYUN 1C DEB",
        "group": "fengyun-1c-debris",
        "lat": 80.5941133653365,
        "lon": -10.586689098617734,
        "alt_km": 891.3873890231489,
        "timestamp": "2025-12-14T20:40:32.046366+00:00",
        "meta_object_name": "FENGYUN 1C DEB",
        "meta_object_id": "1999-025VW",
        "meta_epoch": "2025-12-14T05:14:20.171328",
        "meta_mean_motion": 14.11587974,
        "meta_eccentricity": 0.00717873,
        "meta_inclination": 99.1226,
        "meta_ra_of_asc_node": 64.6831,
        "meta_arg_of_pericenter": 239.6081,
        "meta_mean_anomaly": 181.805,
        "meta_ephemeris_type": 0,
        "meta_classification_type": "U",
        "meta_norad_cat_id": 30213,
        "meta_element_set_no": 999,
        "meta_rev_at_epoch": 96536,
        "meta_bstar": 0.0019120981,
        "meta_mean_motion_dot": 3.513e-05,
        "meta_mean_motion_ddot": 0,
        "tle_line1": "1 30213U 99025VW  25348.21828902  .00003513  00000+0  19121-2 0  9995",
        "tle_line2": "2 30213  99.1226  64.6831 0071787 239.6081 181.8050 14.11587974965366"
      },
      "geometry": {
        "type": "Point",
        "coordinates": [
          -10.586689098617734,
          80.5941133653365
        ]
      }
    },
    {
      "type": "Feature",
      "properties": {
        "norad_id": 30214,
        "name": "FENGYUN 1C DEB",
        "group": "fengyun-1c-debris",
        "lat": 50.21358135525788,
        "lon": 51.39374691709721,
        "alt_km": 769.4104561369741,
        "timestamp": "2025-12-14T20:40:32.046376+00:00",
        "meta_object_name": "FENGYUN 1C DEB",
        "meta_object_id": "1999-025VX",
        "meta_epoch": "2025-12-14T03:47:46.954176",
        "meta_mean_motion": 14.30939438,
        "meta_eccentricity": 0.0020762,
        "meta_inclination": 98.7243,
        "meta_ra_of_asc_node": 61.3136,
        "meta_arg_of_pericenter": 40.595,
        "meta_mean_anomaly": 349.5361,
        "meta_ephemeris_type": 0,
        "meta_classification_type": "U",
        "meta_norad_cat_id": 30214,
        "meta_element_set_no": 999,
        "meta_rev_at_epoch": 97587,
        "meta_bstar": 0.0019191755,
        "meta_mean_motion_dot": 5.013e-05,
        "meta_mean_motion_ddot": 0,
        "tle_line1": "1 30214U 99025VX  25348.15818234  .00005013  00000+0  19192-2 0  9991",
        "tle_line2": "2 30214  98.7243  61.3136 0020762  40.5950 349.5361 14.30939438975876"
      },
      "geometry": {
        "type": "Point",
        "coordinates": [
          51.39374691709721,
          50.21358135525788
        ]
      }
    },
    {
      "type": "Feature",
      "properties": {
        "norad_id": 30217,
        "name": "FENGYUN 1C DEB",
        "group": "fengyun-1c-debris",
        "lat": 22.603956896868787,
        "lon": 156.0891727517321,
        "alt_km": 762.1940807281035,
        "timestamp": "2025-12-14T20:40:32.046386+00:00",
        "meta_object_name": "FENGYUN 1C DEB",
        "meta_object_id": "1999-025WA",
        "meta_epoch": "2025-12-14T04:47:12.925824",
        "meta_mean_motion": 14.24836429,
        "meta_eccentricity": 0.01407062,
        "meta_inclination": 98.4314,
        "meta_ra_of_asc_node": 331.9127,
        "meta_arg_of_pericenter": 95.5849,
        "meta_mean_anomaly": 266.1396,
        "meta_ephemeris_type": 0,
        "meta_classification_type": "U",
        "meta_norad_cat_id": 30217,
        "meta_element_set_no": 999,
        "meta_rev_at_epoch": 98094,
        "meta_bstar": 0.00032035373,
        "meta_mean_motion_dot": 7.87e-06,
        "meta_mean_motion_ddot": 0,
        "tle_line1": "1 30217U 99025WA  25348.19945516  .00000787  00000+0  32035-3 0  9997",
        "tle_line2": "2 30217  98.4314 331.9127 0140706  95.5849 266.1396 14.24836429980944"
      },
      "geometry": {
        "type": "Point",
        "coordinates": [
          156.0891727517321,
          22.603956896868787
        ]
      }
    }
  ]
}